QIANFAN-97              
1 66039U 25233G   25335.29472197  .00000338  00000+0  22449-3 0  9995
2 66039  88.9964  63.4007 0017790  78.4877 281.8297 13.99011312  6389
QIANFAN-98              
1 66040U 25233H   25334.73653802  .00000124  00000+0  60939-4 0  9999
2 66040  88.9966  63.4289 0015845  82.0331 278.2652 14.11093586  6327
QIANFAN-99              
1 66041U 25233J   25335.22155915  .00000320  00000+0  21247-3 0  9993
2 66041  88.9965  63.4084 0017747  75.0225 285.2917 13.98886233  6377
QIANFAN-100             
1 66042U 25233K   25335.23835654  .00000466  00000+0  26508-3 0  9996
2 66042  88.9891  63.3646 0020284  95.1521 265.1978 14.08026050  6392
QIANFAN-101             
1 66043U 25233L   25335.30388928  .00000371  00000+0  14712-3 0  9991
2 66043  88.9967  63.3466 0016858  75.7704 284.5361 14.26664989  6419
QIANFAN-102             
1 66044U 25233M   25335.19429948  .00000348  00000+0  22144-3 0  9999
2 66044  88.9942  63.4003 0016498  75.6551 284.6459 14.01418627  6373
QIANFAN-103             
1 66045U 25233N   25335.23058813  .00000273  00000+0  18741-3 0  9999
2 66045  88.9945  63.4063 0017673  75.6587 284.6550 13.96569620  6373
QIANFAN-104             
1 66046U 25233P   25335.26518267  .00000415  00000+0  26583-3 0  9998
2 66046  88.9962  63.3951 0016799  80.7643 279.5436 14.01387481  6383
